{
    "links": {
        "self": "http://www.neowsapp.com/rest/v1/neo/3698554?api_key=iIulBulltgU6a56xZRHN4H3l9WmuAYTsLGpBGhQ2"
    },
    "id": "3698554",
    "neo_reference_id": "3698554",
    "name": "(2014 HE199)",
    "designation": "2014 HE199",
    "nasa_jpl_url": "http://ssd.jpl.nasa.gov/sbdb.cgi?sstr=3698554",
    "absolute_magnitude_h": 25.2,
    "estimated_diameter": {
        "kilometers": {
            "estimated_diameter_min": 0.0242412481,
            "estimated_diameter_max": 0.0542050786
        },
        "meters": {
            "estimated_diameter_min": 24.2412481101,
            "estimated_diameter_max": 54.2050786336
        },
        "miles": {
            "estimated_diameter_min": 0.0150628086,
            "estimated_diameter_max": 0.0336814639
        },
        "feet": {
            "estimated_diameter_min": 79.5316564495,
            "estimated_diameter_max": 177.8381901842
        }
    },
    "is_potentially_hazardous_asteroid": false,
    "close_approach_data": [
        {
            "close_approach_date": "2014-04-02",
            "close_approach_date_full": "2014-Apr-02 23:47",
            "epoch_date_close_approach": 1396482420000,
            "relative_velocity": {
                "kilometers_per_second": "12.0056726029",
                "kilometers_per_hour": "43220.4213703694",
                "miles_per_hour": "26855.4890453832"
            },
            "miss_distance": {
                "astronomical": "0.0305839897",
                "lunar": "11.8971719933",
                "kilometers": "4575299.715221939",
                "miles": "2842959.4132591982"
            },
            "orbiting_body": "Earth"
        }
    ],
    "orbital_data": {
        "orbit_id": "3",
        "orbit_determination_date": "2017-04-06 08:40:43",
        "first_observation_date": "2014-04-28",
        "last_observation_date": "2014-05-02",
        "data_arc_in_days": 4,
        "observations_used": 26,
        "orbit_uncertainty": "9",
        "minimum_orbit_intersection": ".0130579",
        "jupiter_tisserand_invariant": "3.220",
        "epoch_osculation": "2456777.5",
        "eccentricity": ".6322033614914262",
        "semi_major_axis": "2.394024049458143",
        "inclination": "5.258500110618705",
        "ascending_node_longitude": "24.81661785545831",
        "orbital_period": "1352.979418429623",
        "perihelion_distance": ".8805139978993888",
        "perihelion_argument": "125.0800349442948",
        "aphelion_distance": "3.907534101016898",
        "perihelion_time": "2456718.935141984250",
        "mean_anomaly": "15.58290436534581",
        "mean_motion": ".2660794355747444",
        "equinox": "J2000",
        "orbit_class": {
            "orbit_class_type": "APO",
            "orbit_class_description": "Near-Earth asteroid orbits which cross the Earth’s orbit similar to that of 1862 Apollo",
            "orbit_class_range": "a (semi-major axis) > 1.0 AU; q (perihelion) < 1.017 AU"
        }
    },
    "is_sentry_object": false
}